{
  "norad_id": 56730,
  "name": "IRIDIUM 179",
  "history": [
    {
      "epoch": "2026-03-28T20:38:57.673536Z",
      "apogee_km": 630.4616287088047,
      "perigee_km": 626.7664083566515,
      "latitude_deg": 7.743451923773454e-06,
      "longitude_deg": -68.35068068831423,
      "height_km": 631.9343098208789,
      "semi_major_axis_km": 7006.751018532728,
      "eccentricity": 0.00026369,
      "inclination_deg": 86.6735,
      "raan_deg": 67.6644,
      "arg_perigee_deg": 96.3725,
      "mean_anomaly_deg": 263.7797,
      "mean_motion_rev_day": 14.80224997
    },
    {
      "epoch": "2026-03-29T04:45:41.681376Z",
      "apogee_km": 630.4559251493902,
      "perigee_km": 626.7549637902202,
      "latitude_deg": -1.0693935920313791e-05,
      "longitude_deg": 169.49209507438326,
      "height_km": 631.8812265836814,
      "semi_major_axis_km": 7006.7424444698045,
      "eccentricity": 0.0002641,
      "inclination_deg": 86.6736,
      "raan_deg": 67.5237,
      "arg_perigee_deg": 94.9783,
      "mean_anomaly_deg": 265.174,
      "mean_motion_rev_day": 14.80227714
    },
    {
      "epoch": "2026-03-30T05:05:53.696256Z",
      "apogee_km": 630.4670724534262,
      "perigee_km": 626.7260372738128,
      "latitude_deg": 7.747329111848778e-05,
      "longitude_deg": 163.02146726837285,
      "height_km": 631.8841010510663,
      "semi_major_axis_km": 7006.733554863619,
      "eccentricity": 0.00026696,
      "inclination_deg": 86.6739,
      "raan_deg": 67.1026,
      "arg_perigee_deg": 95.2883,
      "mean_anomaly_deg": 264.8644,
      "mean_motion_rev_day": 14.80230531
    },
    {
      "epoch": "2026-03-30T13:12:37.627200Z",
      "apogee_km": 630.4749529985293,
      "perigee_km": 626.7100970901329,
      "latitude_deg": -2.5898761649211638e-05,
      "longitude_deg": 40.864959743466706,
      "height_km": 631.8751446559387,
      "semi_major_axis_km": 7006.729525044331,
      "eccentricity": 0.00026866,
      "inclination_deg": 86.6743,
      "raan_deg": 66.9623,
      "arg_perigee_deg": 95.1045,
      "mean_anomaly_deg": 265.0483,
      "mean_motion_rev_day": 14.80231808
    },
    {
      "epoch": "2026-03-30T21:19:21.546048Z",
      "apogee_km": 630.4747120863594,
      "perigee_km": 626.7029915603216,
      "latitude_deg": 1.769081457301354e-05,
      "longitude_deg": -81.29148874931555,
      "height_km": 631.8713359360971,
      "semi_major_axis_km": 7006.72585182334,
      "eccentricity": 0.00026915,
      "inclination_deg": 86.6743,
      "raan_deg": 66.822,
      "arg_perigee_deg": 95.0915,
      "mean_anomaly_deg": 265.0614,
      "mean_motion_rev_day": 14.80232972
    },
    {
      "epoch": "2026-03-31T15:10:10.124832Z",
      "apogee_km": 630.475484382514,
      "perigee_km": 626.6848503949559,
      "latitude_deg": -4.713989893407315e-05,
      "longitude_deg": 9.964253761297964,
      "height_km": 631.8561536322894,
      "semi_major_axis_km": 7006.717167388734,
      "eccentricity": 0.0002705,
      "inclination_deg": 86.6745,
      "raan_deg": 66.5131,
      "arg_perigee_deg": 94.8692,
      "mean_anomaly_deg": 265.2838,
      "mean_motion_rev_day": 14.80235724
    },
    {
      "epoch": "2026-04-01T15:30:21.941856Z",
      "apogee_km": 630.5168250875913,
      "perigee_km": 626.7149609678345,
      "latitude_deg": 8.382867693214207e-06,
      "longitude_deg": 3.4945513852193097,
      "height_km": 631.9230641638587,
      "semi_major_axis_km": 7006.752893027712,
      "eccentricity": 0.0002713,
      "inclination_deg": 86.6747,
      "raan_deg": 66.0921,
      "arg_perigee_deg": 95.7995,
      "mean_anomaly_deg": 264.3536,
      "mean_motion_rev_day": 14.80224403
    },
    {
      "epoch": "2026-04-02T15:50:33.986112Z",
      "apogee_km": 630.527548425548,
      "perigee_km": 626.6808475078642,
      "latitude_deg": 1.810817552911038e-05,
      "longitude_deg": -2.9764034456977875,
      "height_km": 631.8974169874316,
      "semi_major_axis_km": 7006.741197966706,
      "eccentricity": 0.0002745,
      "inclination_deg": 86.6747,
      "raan_deg": 65.6708,
      "arg_perigee_deg": 95.316,
      "mean_anomaly_deg": 264.8375,
      "mean_motion_rev_day": 14.80228109
    },
    {
      "epoch": "2026-04-02T22:19:57.004896Z",
      "apogee_km": 630.5038640080902,
      "perigee_km": 626.6765093496397,
      "latitude_deg": -4.312018618686145e-05,
      "longitude_deg": -100.7009420305229,
      "height_km": 631.8698988619684,
      "semi_major_axis_km": 7006.727186678865,
      "eccentricity": 0.00027312,
      "inclination_deg": 86.6748,
      "raan_deg": 65.5587,
      "arg_perigee_deg": 94.9358,
      "mean_anomaly_deg": 265.2175,
      "mean_motion_rev_day": 14.80232549
    },
    {
      "epoch": "2026-04-03T21:02:47.997024Z",
      "apogee_km": 630.5436637618541,
      "perigee_km": 626.6100945900844,
      "latitude_deg": 3.5350358375116535e-05,
      "longitude_deg": -82.73954230185889,
      "height_km": 631.8902068541681,
      "semi_major_axis_km": 7006.713879175969,
      "eccentricity": 0.0002807,
      "inclination_deg": 86.6751,
      "raan_deg": 65.1654,
      "arg_perigee_deg": 95.7895,
      "mean_anomaly_deg": 264.3647,
      "mean_motion_rev_day": 14.80236766
    },
    {
      "epoch": "2026-04-04T21:22:59.406240Z",
      "apogee_km": 630.5503979063806,
      "perigee_km": 626.5846031590781,
      "latitude_deg": 5.964725738966823e-05,
      "longitude_deg": -89.20744480005797,
      "height_km": 631.8740351721757,
      "semi_major_axis_km": 7006.704500532729,
      "eccentricity": 0.000283,
      "inclination_deg": 86.6754,
      "raan_deg": 64.7445,
      "arg_perigee_deg": 95.5463,
      "mean_anomaly_deg": 264.6082,
      "mean_motion_rev_day": 14.80239738
    },
    {
      "epoch": "2026-04-05T10:21:45.397152Z",
      "apogee_km": 630.5512542696679,
      "perigee_km": 626.5696283816587,
      "latitude_deg": 2.2544347158276975e-05,
      "longitude_deg": 75.34337664058327,
      "height_km": 631.8626033398949,
      "semi_major_axis_km": 7006.697441325663,
      "eccentricity": 0.00028413,
      "inclination_deg": 86.6756,
      "raan_deg": 64.52,
      "arg_perigee_deg": 95.3981,
      "mean_anomaly_deg": 264.7565,
      "mean_motion_rev_day": 14.80241975
    },
    {
      "epoch": "2026-04-05T20:05:49.847136Z",
      "apogee_km": 630.5547931199162,
      "perigee_km": 626.5581751565642,
      "latitude_deg": 9.223997116043199e-05,
      "longitude_deg": -71.24324622077285,
      "height_km": 631.8536563004254,
      "semi_major_axis_km": 7006.69348413824,
      "eccentricity": 0.0002852,
      "inclination_deg": 86.6757,
      "raan_deg": 64.3517,
      "arg_perigee_deg": 95.235,
      "mean_anomaly_deg": 264.9198,
      "mean_motion_rev_day": 14.80243229
    },
    {
      "epoch": "2026-04-05T23:20:31.322400Z",
      "apogee_km": 630.5577995151507,
      "perigee_km": 626.5523539225733,
      "latitude_deg": 1.9891599400344558e-05,
      "longitude_deg": -120.10542567091278,
      "height_km": 631.852593144912,
      "semi_major_axis_km": 7006.692076718862,
      "eccentricity": 0.00028583,
      "inclination_deg": 86.6757,
      "raan_deg": 64.2956,
      "arg_perigee_deg": 95.2333,
      "mean_anomaly_deg": 264.9215,
      "mean_motion_rev_day": 14.80243675
    },
    {
      "epoch": "2026-04-07T09:24:47.756160Z",
      "apogee_km": 630.6353129809668,
      "perigee_km": 626.5487083527842,
      "latitude_deg": 2.849694047066969e-06,
      "longitude_deg": 86.83743990272475,
      "height_km": 631.8490236900783,
      "semi_major_axis_km": 7006.729010666875,
      "eccentricity": 0.00029162,
      "inclination_deg": 86.6754,
      "raan_deg": 63.7062,
      "arg_perigee_deg": 93.9938,
      "mean_anomaly_deg": 266.1617,
      "mean_motion_rev_day": 14.80231971
    },
    {
      "epoch": "2026-04-07T20:46:13.242720Z",
      "apogee_km": 630.6299458804542,
      "perigee_km": 626.5492283161284,
      "latitude_deg": 3.116066141544652e-05,
      "longitude_deg": -84.18167253475693,
      "height_km": 631.8272581669273,
      "semi_major_axis_km": 7006.726587098291,
      "eccentricity": 0.0002912,
      "inclination_deg": 86.6753,
      "raan_deg": 63.5097,
      "arg_perigee_deg": 93.4554,
      "mean_anomaly_deg": 266.7001,
      "mean_motion_rev_day": 14.80232739
    },
    {
      "epoch": "2026-04-08T14:37:01.822368Z",
      "apogee_km": 630.5463495576214,
      "perigee_km": 626.6263681072887,
      "latitude_deg": 2.4226540116999616e-05,
      "longitude_deg": 7.0743664203338925,
      "height_km": 631.7975509846083,
      "semi_major_axis_km": 7006.723358832455,
      "eccentricity": 0.00027973,
      "inclination_deg": 86.6757,
      "raan_deg": 63.2011,
      "arg_perigee_deg": 92.8157,
      "mean_anomaly_deg": 267.3385,
      "mean_motion_rev_day": 14.80233762
    }
  ]
}